ONEWEB-0628             
1 55169U 23004AF  25149.16871923 -.00000076  00000+0 -24755-3 0  9993
2 55169  87.8892  67.0293 0002283  61.7433 298.3925 13.12443612117662
ONEWEB-0629             
1 55170U 23004AG  25149.25615714  .00000069  00000+0  14341-3 0  9999
2 55170  87.9081  82.3178 0001827  69.9946 290.1382 13.17647897117022
ONEWEB-0631             
1 55171U 23004AH  25149.01419829  .00000018  00000+0  11976-4 0  9999
2 55171  87.9158  51.7796 0002443  83.6245 276.5166 13.18685907119041
ONEWEB-0709             
1 55172U 23004AJ  25149.12639985 -.00000272  00000+0 -80425-3 0  9997
2 55172  87.8833  97.6483 0002632  99.6791 260.4634 13.11418534115531
ONEWEB-0710             
1 55173U 23004AK  25149.04270293  .00000066  00000+0  13687-3 0  9997
2 55173  87.9064  82.3694 0002129  77.7536 282.3833 13.17648564116998
ONEWEB-0711             
1 55174U 23004AL  25149.25016216 -.00000068  00000+0 -22746-3 0  9994
2 55174  87.8829  97.5914 0002588  66.4929 293.6471 13.11416426115514
ONEWEB-0713             
1 55175U 23004AM  25149.26881774 -.00000518  00000+0 -14970-2 0  9994
2 55175  87.8832  97.5953 0002209  75.0542 285.0831 13.11417357115507
ONEWEB-0715             
1 55176U 23004AN  25149.26371731 -.00000431  00000+0 -12508-2 0  9991
2 55176  87.8831  97.5967 0002359  86.4827 273.6571 13.11415173115542
